OBJECT_NAME,OBJECT_ID,EPOCH,MEAN_MOTION,ECCENTRICITY,INCLINATION,RA_OF_ASC_NODE,ARG_OF_PERICENTER,MEAN_ANOMALY,EPHEMERIS_TYPE,CLASSIFICATION_TYPE,NORAD_CAT_ID,ELEMENT_SET_NO,REV_AT_EPOCH,BSTAR,MEAN_MOTION_DOT,MEAN_MOTION_DDOT
STARLINK-36731,2026-099P,2026-05-29T04:00:03.998880,15.51769114,.000118,53.1604,250.4882,74.4661,87.7463,0,U,68964,999,565,-.37847E-1,-.2047855E-1,0
STARLINK-36664,2026-099Q,2026-05-29T04:00:03.998880,15.52258478,.0001195,53.1598,250.4817,69.4165,96.1365,0,U,68965,999,565,-.32683E-1,-.1793486E-1,0
STARLINK-36402,2026-099R,2026-05-29T04:00:03.998880,15.49236429,.0000873,53.1597,250.9157,69.7979,241.3239,0,U,68966,999,565,.19385E-2,.108594E-2,0
STARLINK-36671,2026-099S,2026-05-29T04:00:03.998880,15.59570723,.0000787,53.1594,250.2038,88.6188,213.9486,0,U,68967,999,565,-.3037E-1,-.2180938E-1,0
STARLINK-36665,2026-099T,2026-05-29T04:00:03.998880,15.49228676,.0001053,53.1601,250.5649,86.5439,37.6674,0,U,68968,999,565,.18507E-2,.103561E-2,0
STARLINK-36303,2026-099U,2026-05-29T04:00:03.998880,15.60711707,.0000891,53.1593,250.2444,86.1437,196.7257,0,U,68969,999,565,-.26174E-1,-.1951154E-1,0
STARLINK-37257,2026-099V,2026-05-29T04:00:03.998880,15.49446606,.0000415,53.1601,250.7918,75.4680,296.3704,0,U,68970,999,550,-.35378E-2,-.193345E-2,0
STARLINK-37367,2026-099W,2026-05-29T04:00:03.998880,15.49238001,.0000975,53.1601,251.1477,99.2809,97.0248,0,U,68971,999,550,.26308E-2,.148302E-2,0
STARLINK-37259,2026-099X,2026-05-29T00:00:04.000320,15.49268280,.0001157,53.1602,252.1329,85.9626,166.7916,0,U,68972,999,558,.57006E-3,.31338E-3,0
STARLINK-37387,2026-099Y,2026-05-28T22:08:57.335712,15.49338756,.0001268,53.1590,252.8705,71.8760,288.2387,0,U,68973,999,429,.95456E-3,.53058E-3,0
STARLINK-37362,2026-099Z,2026-05-29T04:00:03.998880,15.49241718,.000063,53.1601,251.1896,88.7548,86.3604,0,U,68974,999,561,.18278E-2,.102302E-2,0
STARLINK-36667,2026-099AA,2026-05-29T04:00:03.998880,15.49315989,.0000819,53.1600,250.7226,340.6640,64.6751,0,U,68975,999,565,-.49323E-3,-.27788E-3,0
STARLINK-36735,2026-099AB,2026-05-29T04:00:03.998880,15.49318024,.0000909,53.1600,250.7150,344.9511,63.4587,0,U,68976,999,565,-.54707E-3,-.30763E-3,0
STARLINK-37371,2026-099AC,2026-05-29T04:00:03.998880,15.54131259,.0001007,53.1599,250.2852,80.7941,180.2149,0,U,68977,999,561,-.3167E-1,-.1853259E-1,0
STARLINK-37293,2026-099AD,2026-05-29T04:00:03.998880,15.49240266,.0001127,53.1603,250.6284,65.5552,25.5332,0,U,68978,999,561,.17683E-2,.98911E-3,0
STARLINK-36248,2026-099AE,2026-05-29T04:00:03.998880,15.49238230,.0000994,53.1596,250.9790,86.1220,192.2355,0,U,68979,999,566,.18501E-2,.103562E-2,0
PEARL-1B,2026-100A,2026-05-29T04:18:48.068928,14.90479073,.0006547,97.7390,46.9408,198.5657,161.5323,0,U,68980,999,385,.25853E-3,.2469E-4,0
IRIDE-MS2-HEO-7,2026-100B,2026-05-29T04:04:14.166624,14.91054404,.0003865,97.7384,46.9536,190.7719,169.3417,0,U,68981,999,386,.16699E-3,.1598E-4,0
IRIDE-MS2-HEO-10,2026-100C,2026-05-29T04:00:40.476960,14.91197889,.0002941,97.7358,46.9513,196.7185,163.3937,0,U,68982,999,386,.1664E-3,.1598E-4,0
IRIDE-MS2-HEO-11,2026-100D,2026-05-29T03:57:51.017184,14.91311441,.0003195,97.7404,46.9650,179.3570,180.7653,0,U,68983,999,386,.16488E-3,.1587E-4,0
IRIDE-MS2-HEO-12,2026-100E,2026-05-29T04:02:47.306112,14.91112621,.0003374,97.7364,46.9507,197.2182,162.8922,0,U,68984,999,386,.1663E-3,.1594E-4,0
IRIDE-MS2-HEO-13,2026-100F,2026-05-28T22:58:48.997056,14.91683835,.0002304,97.7392,46.7717,146.1425,213.9941,0,U,68985,999,383,.17026E-3,.1657E-4,0
IRIDE-MS2-HEO-14,2026-100G,2026-05-28T16:30:20.506176,14.91769081,.0001973,97.7385,46.5089,137.5000,222.6372,0,U,68986,999,379,.17608E-3,.1719E-4,0
IRIDE-MS2-HEO-15,2026-100H,2026-05-29T03:47:13.323840,14.91740206,.0001822,97.7361,46.9637,139.5106,220.6249,0,U,68987,999,386,.17001E-3,.1657E-4,0
CAS500-2 RIDESHARE OBJECT J,2026-100J,2026-05-28T05:42:43.301088,14.90574740,.0005687,97.7368,46.0192,205.3868,154.7072,0,U,68988,999,372,.15188E-3,.1431E-4,0
CAS500-2 RIDESHARE OBJECT K,2026-100K,2026-05-29T04:11:12.293376,14.90784081,.0005697,97.7418,46.9523,183.8041,176.3134,0,U,68989,999,386,.24887E-3,.2392E-4,0
PEARL-1A,2026-100L,2026-05-29T04:08:02.101056,14.90902759,.0004149,97.7334,46.9405,213.0203,147.0757,0,U,68990,999,386,.17962E-3,.1716E-4,0
YAM-11,2026-100M,2026-05-29T04:00:03.998880,14.88940423,.0006989,97.7390,46.9480,106.2963,230.0561,0,U,68991,999,248,.51249E-2,.48419E-3,0
YAM-16,2026-100N,2026-05-29T00:43:12.575424,14.91369676,.0002826,97.7392,46.8314,178.9144,181.2081,0,U,68992,999,384,.17633E-3,.1704E-4,0
YAM-13,2026-100P,2026-05-29T03:47:04.043616,14.93401202,.0006176,97.7395,46.9716,109.9305,250.2581,0,U,68993,999,386,.17765E-3,.1809E-4,0
NULINK-2,2026-100Q,2026-05-29T03:31:16.002336,14.92424882,.0002511,97.7360,46.9788,58.7519,301.3946,0,U,68994,999,386,.44653E-3,.452E-4,0
ICEYE-X78,2026-100R,2026-05-28T16:33:28.903104,14.91663277,.0002432,97.7393,46.5073,153.3888,206.7456,0,U,68995,999,379,.29533E-3,.2913E-4,0
ICEYE-X82,2026-100S,2026-05-29T04:01:11.879040,14.91196603,.0003492,97.7383,46.9562,189.1216,170.9939,0,U,68996,999,386,.27197E-3,.2647E-4,0
YAM-15,2026-100T,2026-05-29T04:00:03.998880,14.93322104,.0006061,97.7390,46.9794,111.6832,299.3100,0,U,68997,999,230,.43881E-2,.46223E-3,0
CAS500-2 RIDESHARE OBJECT U,2026-100U,2026-05-28T16:25:48.270144,14.91929665,.0002975,97.7415,46.5186,121.1807,238.9703,0,U,68998,999,379,.14066E-3,.1368E-4,0
CAS500-2 RIDESHARE OBJECT V,2026-100V,2026-05-28T16:23:48.047136,14.92013391,.0001197,97.7348,46.5086,76.8577,283.2775,0,U,68999,999,379,.14868E-3,.1452E-4,0
GEMINI-POLLUX,2026-100W,2026-05-28T06:41:58.222176,14.92144790,.0001351,97.7350,46.1162,54.9618,305.1727,0,U,69000,999,373,.24681E-3,.2455E-4,0
CAS500-2 RIDESHARE OBJECT X,2026-100X,2026-05-28T16:19:55.182720,14.92208967,.0002907,97.7394,46.5198,93.6315,266.5236,0,U,69001,999,378,.14888E-3,.1461E-4,0
NULINK-1,2026-100Y,2026-05-28T06:32:36.680064,14.92543774,.0003452,97.7373,46.1291,67.6952,292.4633,0,U,69002,999,372,.22504E-3,.2257E-4,0
YAM-12,2026-100Z,2026-05-29T04:00:03.998880,14.89176965,.0008709,97.7368,46.9648,96.5202,292.7856,0,U,69003,999,190,.48981E-2,.46544E-3,0
GEN1A-1,2026-100AA,2026-05-29T04:55:52.334976,15.20037972,.0006138,97.4074,47.3637,83.4323,276.7611,0,U,69004,999,393,.18441E-3,.391E-4,0
GEN1A-2,2026-100AB,2026-05-29T04:52:42.808800,15.20169984,.0007066,97.4064,47.3581,86.2297,273.9746,0,U,69005,999,393,.1885E-3,.4014E-4,0
JEN-1,2026-100AC,2026-05-29T04:57:24.853824,15.20018042,.0005952,97.4075,47.3631,80.4432,279.7476,0,U,69006,999,392,.30915E-3,.6598E-4,0
BRO-21,2026-100AD,2026-05-29T04:24:53.142624,15.21333028,.000957,97.4071,47.3889,115.6063,244.6163,0,U,69007,999,391,.31787E-3,.7058E-4,0
YAM-14,2026-100AE,2026-05-29T04:02:11.279040,14.91043298,.0003334,97.7370,46.9524,191.3500,168.7644,0,U,69008,999,385,.17473E-3,.1674E-4,0
CAS500-2 RIDESHARE OBJECT AF,2026-100AF,2026-05-28T16:29:01.612608,15.19733381,.0006567,97.4069,46.8327,62.6358,297.5544,0,U,69009,999,384,.67237E-3,.14327E-3,0
DRISHTI,2026-100AG,2026-05-29T04:48:14.156640,15.20342352,.000714,97.4066,47.3646,93.6294,266.5758,0,U,69010,999,392,.1588E-3,.3388E-4,0
CAS500-2 RIDESHARE OBJECT AH,2026-100AH,2026-05-29T04:46:38.293248,15.20437941,.0006471,97.4074,47.3725,97.6046,262.5925,0,U,69011,999,392,.29748E-3,.6425E-4,0
JACKAL-004,2026-100AJ,2026-05-29T04:44:22.233120,15.20527992,.0007258,97.4067,47.3686,97.9354,262.2705,0,U,69012,999,392,.24001E-3,.5184E-4,0
CAS500-2,2026-100AK,2026-05-29T04:46:23.891232,15.20475146,.0009199,97.4099,47.3802,87.7838,272.4451,0,U,69013,999,392,.4098E-3,.8894E-4,0
CAS500-2 RIDESHARE OBJECT AL,2026-100AL,2026-05-29T04:32:56.122944,15.20995320,.0007711,97.4093,47.3944,116.3651,243.8377,0,U,69014,999,392,.24267E-3,.5315E-4,0
FRONTIERSAT,2026-100AM,2026-05-29T04:27:10.115136,15.21337065,.0010248,97.4028,47.3646,106.2536,253.9828,0,U,69015,999,393,.51676E-3,.11528E-3,0
RAVEN,2026-100AN,2026-05-29T04:26:35.683872,15.21238171,.0009628,97.4055,47.3806,111.8643,248.3618,0,U,69016,999,392,.15104E-3,.3307E-4,0
PELICAN-7,2026-100AP,2026-05-28T16:09:12.053952,15.21055766,.0003813,97.4098,46.8525,94.0814,266.0858,0,U,69017,999,384,.16835E-4,.306E-5,0
EDDA-1,2026-100AQ,2026-05-29T03:17:13.916832,15.20191111,.0006397,97.4072,47.3016,89.0344,271.1624,0,U,69018,999,392,.15986E-3,.3395E-4,0
PELICAN-9,2026-100AR,2026-05-29T04:48:11.434176,15.20397305,.0006786,97.4066,47.3643,92.4884,267.7129,0,U,69019,999,392,.18722E-3,.4013E-4,0
SELENE,2026-100AS,2026-05-28T22:48:48.585312,15.19628266,.0005808,97.4068,47.0903,61.7658,298.4162,0,U,69020,999,388,.36925E-3,.7806E-4,0
HELIOS,2026-100AT,2026-05-28T16:27:14.671008,15.19718326,.0006496,97.4052,46.8254,66.2484,293.9432,0,U,69021,999,384,.40595E-3,.8613E-4,0
HYDRA-3,2026-100AU,2026-05-28T16:26:47.555232,15.19680542,.0006776,97.4053,46.8256,68.6740,291.5218,0,U,69022,999,384,.34565E-3,.7314E-4,0
QUBE-II,2026-100AV,2026-05-29T05:01:44.256864,15.19909750,.0004899,97.4095,47.3692,73.0762,287.1010,0,U,69023,999,392,.49389E-3,.10552E-3,0
BALKAN-2,2026-100AW,2026-05-29T05:01:13.586592,15.19870715,.0004955,97.4094,47.3698,74.6609,285.5173,0,U,69024,999,392,.32572E-3,.6925E-4,0
STARLINK-37592,2026-101A,2026-05-29T04:00:03.998880,15.60160309,.0001701,97.2840,4.0620,118.7410,208.2740,0,U,69025,999,490,-.26828E-1,-.1923373E-1,0
STARLINK-37637,2026-101B,2026-05-29T04:00:03.998880,15.53122734,.0001887,97.2846,4.0187,100.1446,125.2843,0,U,69026,999,490,-.34968E-1,-.1926782E-1,0
STARLINK-37548,2026-101C,2026-05-29T04:00:03.998880,15.59009339,.0001931,97.2835,4.0604,109.7287,216.0748,0,U,69027,999,487,-.2772E-1,-.1904422E-1,0
STARLINK-37634,2026-101D,2026-05-29T04:00:03.998880,15.63806910,.0001441,97.2839,4.0890,99.6954,292.5502,0,U,69028,999,490,-.14609E-1,-.1225588E-1,0
STARLINK-37635,2026-101E,2026-05-29T04:00:03.998880,15.62340420,.0001297,97.2843,4.0842,93.3676,286.2075,0,U,69029,999,487,-.28957E-1,-.2259108E-1,0
